{
    "links": {
        "self": "http://www.neowsapp.com/rest/v1/neo/54017596?api_key=iIulBulltgU6a56xZRHN4H3l9WmuAYTsLGpBGhQ2"
    },
    "id": "54017596",
    "neo_reference_id": "54017596",
    "name": "(2020 MC2)",
    "designation": "2020 MC2",
    "nasa_jpl_url": "http://ssd.jpl.nasa.gov/sbdb.cgi?sstr=54017596",
    "absolute_magnitude_h": 24.75,
    "estimated_diameter": {
        "kilometers": {
            "estimated_diameter_min": 0.0298232505,
            "estimated_diameter_max": 0.0666868155
        },
        "meters": {
            "estimated_diameter_min": 29.8232505153,
            "estimated_diameter_max": 66.6868154623
        },
        "miles": {
            "estimated_diameter_min": 0.018531303,
            "estimated_diameter_max": 0.0414372532
        },
        "feet": {
            "estimated_diameter_min": 97.8453132208,
            "estimated_diameter_max": 218.7887716414
        }
    },
    "is_potentially_hazardous_asteroid": false,
    "close_approach_data": [
        {
            "close_approach_date": "2020-06-19",
            "close_approach_date_full": "2020-Jun-19 03:21",
            "epoch_date_close_approach": 1592536860000,
            "relative_velocity": {
                "kilometers_per_second": "13.8829201794",
                "kilometers_per_hour": "49978.5126458292",
                "miles_per_hour": "31054.7041492931"
            },
            "miss_distance": {
                "astronomical": "0.0623937362",
                "lunar": "24.2711633818",
                "kilometers": "9333970.036861894",
                "miles": "5799860.0378223772"
            },
            "orbiting_body": "Earth"
        }
    ],
    "orbital_data": {
        "orbit_id": "3",
        "orbit_determination_date": "2020-06-30 06:03:12",
        "first_observation_date": "2020-06-22",
        "last_observation_date": "2020-06-24",
        "data_arc_in_days": 2,
        "observations_used": 46,
        "orbit_uncertainty": "8",
        "minimum_orbit_intersection": ".0546884",
        "jupiter_tisserand_invariant": "3.015",
        "epoch_osculation": "2459023.5",
        "eccentricity": ".6004981161433628",
        "semi_major_axis": "2.678733396413499",
        "inclination": "20.87713052463441",
        "ascending_node_longitude": "265.8632436587255",
        "orbital_period": "1601.373602248568",
        "perihelion_distance": "1.070159038216881",
        "perihelion_argument": "356.8889923219136",
        "aphelion_distance": "4.287307754610118",
        "perihelion_time": "2459016.351396730591",
        "mean_anomaly": "1.607056075717537",
        "mean_motion": ".2248070028721006",
        "equinox": "J2000",
        "orbit_class": {
            "orbit_class_type": "AMO",
            "orbit_class_description": "Near-Earth asteroid orbits similar to that of 1221 Amor",
            "orbit_class_range": "1.017 AU < q (perihelion) < 1.3 AU"
        }
    },
    "is_sentry_object": false
}